{"type": "FeatureCollection", "features": [ {"type": "Feature", "properties": {"norad_id": 32289, "name": "YAOGAN-3", "group": "resource", "lat": 38.92474991284889, "lon": -146.63794713389606, "alt_km": 594.773693871557, "timestamp": "2025-12-26T11:25:44.876036+00:00", "meta": {"OBJECT_NAME": "YAOGAN-3", "OBJECT_ID": "2007-055A", "EPOCH": "2025-12-26T04:21:11.766816", "MEAN_MOTION": 14.89923264, "ECCENTRICITY": 0.000125, "INCLINATION": 97.8357, "RA_OF_ASC_NODE": 26.6844, "ARG_OF_PERICENTER": 85.7138, "MEAN_ANOMALY": 274.4222, "EPHEMERIS_TYPE": 0, "CLASSIFICATION_TYPE": "U", "NORAD_CAT_ID": 32289, "ELEMENT_SET_NO": 999, "REV_AT_EPOCH": 98009, "BSTAR": 0.00021756, "MEAN_MOTION_DOT": 2.038e-05, "MEAN_MOTION_DDOT": 0}, "tle": {"line1": "1 32289U 07055A   25360.18138619  .00002038  00000+0  21756-3 0  9990", "line2": "2 32289  97.8357  26.6844 0001250  85.7138 274.4222 14.89923264980092"}}, "geometry": {"type": "Point", "coordinates": [-146.63794713389606, 38.92474991284889]}}, {"type": "Feature", "properties": {"norad_id": 32376, "name": "COSMO-SKYMED 2", "group": "resource", "lat": 37.093046275549575, "lon": 175.58161144041654, "alt_km": 619.2405967664345, "timestamp": "2025-12-26T11:25:44.876045+00:00", "meta": {"OBJECT_NAME": "COSMO-SKYMED 2", "OBJECT_ID": "2007-059A", "EPOCH": "2025-12-26T04:46:46.153056", "MEAN_MOTION": 14.82158841, "ECCENTRICITY": 0.0001301, "INCLINATION": 97.8806, "RA_OF_ASC_NODE": 181.3203, "ARG_OF_PERICENTER": 83.2337, "MEAN_ANOMALY": 276.9024, "EPHEMERIS_TYPE": 0, "CLASSIFICATION_TYPE": "U", "NORAD_CAT_ID": 32376, "ELEMENT_SET_NO": 999, "REV_AT_EPOCH": 97637, "BSTAR": 7.4302e-05, "MEAN_MOTION_DOT": 5.39e-06, "MEAN_MOTION_DDOT": 0}, "tle": {"line1": "1 32376U 07059A   25360.19914529  .00000539  00000+0  74302-4 0  9994", "line2": "2 32376  97.8806 181.3203 0001301  83.2337 276.9024 14.82158841976374"}}, "geometry": {"type": "Point", "coordinates": [175.58161144041654, 37.093046275549575]}}, {"type": "Feature", "properties": {"norad_id": 32382, "name": "RADARSAT-2", "group": "resource", "lat": -67.42476810518316, "lon": 26.159265415106987, "alt_km": 799.7351675099817, "timestamp": "2025-12-26T11:25:44.876054+00:00", "meta": {"OBJECT_NAME": "RADARSAT-2", "OBJECT_ID": "2007-061A", "EPOCH": "2025-12-26T05:02:03.738336", "MEAN_MOTION": 14.2998578, "ECCENTRICITY": 0.0001139, "INCLINATION": 98.5799, "RA_OF_ASC_NODE": 4.6039, "ARG_OF_PERICENTER": 84.8913, "MEAN_ANOMALY": 275.2399, "EPHEMERIS_TYPE": 0, "CLASSIFICATION_TYPE": "U", "NORAD_CAT_ID": 32382, "ELEMENT_SET_NO": 999, "REV_AT_EPOCH": 94123, "BSTAR": 0.0001127, "MEAN_MOTION_DOT": 2.47e-06, "MEAN_MOTION_DDOT": 0}, "tle": {"line1": "1 32382U 07061A   25360.20976549  .00000247  00000+0  11270-3 0  9996", "line2": "2 32382  98.5799   4.6039 0001139  84.8913 275.2399 14.29985780941235"}}, "geometry": {"type": "Point", "coordinates": [26.159265415106987, -67.42476810518316]}}, {"type": "Feature", "properties": {"norad_id": 32783, "name": "CARTOSAT-2A", "group": "resource", "lat": 18.677521868062843, "lon": 47.2162115053377, "alt_km": 629.109846749071, "timestamp": "2025-12-26T11:25:44.876064+00:00", "meta": {"OBJECT_NAME": "CARTOSAT-2A", "OBJECT_ID": "2008-021A", "EPOCH": "2025-12-26T04:50:57.162336", "MEAN_MOTION": 14.78954977, "ECCENTRICITY": 0.0010916, "INCLINATION": 97.7908, "RA_OF_ASC_NODE": 49.6034, "ARG_OF_PERICENTER": 319.7393, "MEAN_ANOMALY": 40.3009, "EPHEMERIS_TYPE": 0, "CLASSIFICATION_TYPE": "U", "NORAD_CAT_ID": 32783, "ELEMENT_SET_NO": 999, "REV_AT_EPOCH": 95323, "BSTAR": 8.9725e-05, "MEAN_MOTION_DOT": 6.12e-06, "MEAN_MOTION_DDOT": 0}, "tle": {"line1": "1 32783U 08021A   25360.20205049  .00000612  00000+0  89725-4 0  9995", "line2": "2 32783  97.7908  49.6034 0010916 319.7393  40.3009 14.78954977953232"}}, "geometry": {"type": "Point", "coordinates": [47.2162115053377, 18.677521868062843]}}, {"type": "Feature", "properties": {"norad_id": 33320, "name": "HUANJING 1A (HJ-1A)", "group": "resource", "lat": 73.23891238281293, "lon": -165.27384859273891, "alt_km": 617.0154081597902, "timestamp": "2025-12-26T11:25:44.876073+00:00", "meta": {"OBJECT_NAME": "HUANJING 1A (HJ-1A)", "OBJECT_ID": "2008-041A", "EPOCH": "2025-12-26T04:28:59.352384", "MEAN_MOTION": 14.83435533, "ECCENTRICITY": 0.0019119, "INCLINATION": 97.6552, "RA_OF_ASC_NODE": 347.9242, "ARG_OF_PERICENTER": 351.3642, "MEAN_ANOMALY": 8.724, "EPHEMERIS_TYPE": 0, "CLASSIFICATION_TYPE": "U", "NORAD_CAT_ID": 33320, "ELEMENT_SET_NO": 999, "REV_AT_EPOCH": 93275, "BSTAR": 0.00023251, "MEAN_MOTION_DOT": 1.864e-05, "MEAN_MOTION_DDOT": 0}, "tle": {"line1": "1 33320U 08041A   25360.18679806  .00001864  00000+0  23251-3 0  9999", "line2": "2 33320  97.6552 347.9242 0019119 351.3642   8.7240 14.83435533932759"}}, "geometry": {"type": "Point", "coordinates": [-165.27384859273891, 73.23891238281293]}}, {"type": "Feature", "properties": {"norad_id": 33321, "name": "HUANJING 1B (HJ-1B)", "group": "resource", "lat": -62.149410554451784, "lon": 6.5815258845780695, "alt_km": 629.8381461878071, "timestamp": "2025-12-26T11:25:44.876083+00:00", "meta": {"OBJECT_NAME": "HUANJING 1B (HJ-1B)", "OBJECT_ID": "2008-041B", "EPOCH": "2025-12-26T05:14:04.570080", "MEAN_MOTION": 14.82859169, "ECCENTRICITY": 0.0037683, "INCLINATION": 97.641, "RA_OF_ASC_NODE": 351.6158, "ARG_OF_PERICENTER": 33.0581, "MEAN_ANOMALY": 327.2977, "EPHEMERIS_TYPE": 0, "CLASSIFICATION_TYPE": "U", "NORAD_CAT_ID": 33321, "ELEMENT_SET_NO": 999, "REV_AT_EPOCH": 93277, "BSTAR": 0.00027536, "MEAN_MOTION_DOT": 2.206e-05, "MEAN_MOTION_DDOT": 0}, "tle": {"line1": "1 33321U 08041B   25360.21810845  .00002206  00000+0  27536-3 0  9995", "line2": "2 33321  97.6410 351.6158 0037683  33.0581 327.2977 14.82859169932775"}}, "geometry": {"type": "Point", "coordinates": [6.5815258845780695, -62.149410554451784]}}, {"type": "Feature", "properties": {"norad_id": 33331, "name": "GEOEYE 1", "group": "resource", "lat": 68.70538803448642, "lon": -86.9198954326305, "alt_km": 672.2506226814949, "timestamp": "2025-12-26T11:25:44.876092+00:00", "meta": {"OBJECT_NAME": "GEOEYE 1", "OBJECT_ID": "2008-042A", "EPOCH": "2025-12-26T02:43:55.807104", "MEAN_MOTION": 14.64717692, "ECCENTRICITY": 0.0003049, "INCLINATION": 98.1236, "RA_OF_ASC_NODE": 71.2251, "ARG_OF_PERICENTER": 227.1218, "MEAN_ANOMALY": 132.9729, "EPHEMERIS_TYPE": 0, "CLASSIFICATION_TYPE": "U", "NORAD_CAT_ID": 33331, "ELEMENT_SET_NO": 999, "REV_AT_EPOCH": 92481, "BSTAR": 0.00011804, "MEAN_MOTION_DOT": 5.81e-06, "MEAN_MOTION_DDOT": 0}, "tle": {"line1": "1 33331U 08042A   25360.11384036  .00000581  00000+0  11804-3 0  9999", "line2": "2 33331  98.1236  71.2251 0003049 227.1218 132.9729 14.64717692924815"}}, "geometry": {"type": "Point", "coordinates": [-86.9198954326305, 68.70538803448642]}}, {"type": "Feature", "properties": {"norad_id": 33396, "name": "THEOS", "group": "resource", "lat": -74.44594327780027, "lon": 91.02614590884349, "alt_km": 833.1536630695718, "timestamp": "2025-12-26T11:25:44.876101+00:00", "meta": {"OBJECT_NAME": "THEOS", "OBJECT_ID": "2008-049A", "EPOCH": "2025-12-26T03:20:10.735296", "MEAN_MOTION": 14.20099988, "ECCENTRICITY": 0.0001189, "INCLINATION": 98.5844, "RA_OF_ASC_NODE": 57.8319, "ARG_OF_PERICENTER": 93.8745, "MEAN_ANOMALY": 266.2567, "EPHEMERIS_TYPE": 0, "CLASSIFICATION_TYPE": "U", "NORAD_CAT_ID": 33396, "ELEMENT_SET_NO": 999, "REV_AT_EPOCH": 89340, "BSTAR": 0.00012087, "MEAN_MOTION_DOT": 2.15e-06, "MEAN_MOTION_DDOT": 0}, "tle": {"line1": "1 33396U 08049A   25360.13901314  .00000215  00000+0  12087-3 0  9991", "line2": "2 33396  98.5844  57.8319 0001189  93.8745 266.2567 14.20099988893400"}}, "geometry": {"type": "Point", "coordinates": [91.02614590884349, -74.44594327780027]}}, {"type": "Feature", "properties": {"norad_id": 33412, "name": "COSMO-SKYMED 3", "group": "resource", "lat": -79.4595232176976, "lon": -16.714790271564254, "alt_km": 565.8591876601149, "timestamp": "2025-12-26T11:25:44.876111+00:00", "meta": {"OBJECT_NAME": "COSMO-SKYMED 3", "OBJECT_ID": "2008-054A", "EPOCH": "2025-12-26T03:53:06.706752", "MEAN_MOTION": 15.05469749, "ECCENTRICITY": 0.0017079, "INCLINATION": 97.8448, "RA_OF_ASC_NODE": 210.7809, "ARG_OF_PERICENTER": 128.3279, "MEAN_ANOMALY": 231.9485, "EPHEMERIS_TYPE": 0, "CLASSIFICATION_TYPE": "U", "NORAD_CAT_ID": 33412, "ELEMENT_SET_NO": 999, "REV_AT_EPOCH": 93089, "BSTAR": 0.00031508, "MEAN_MOTION_DOT": 4.477e-05, "MEAN_MOTION_DDOT": 0}, "tle": {"line1": "1 33412U 08054A   25360.16188318  .00004477  00000+0  31508-3 0  9993", "line2": "2 33412  97.8448 210.7809 0017079 128.3279 231.9485 15.05469749930899"}}, "geometry": {"type": "Point", "coordinates": [-16.714790271564254, -79.4595232176976]}}, {"type": "Feature", "properties": {"norad_id": 33446, "name": "YAOGAN-4", "group": "resource", "lat": -22.29115577950712, "lon": 107.17026298873691, "alt_km": 623.3933891615452, "timestamp": "2025-12-26T11:25:44.876120+00:00", "meta": {"OBJECT_NAME": "YAOGAN-4", "OBJECT_ID": "2008-061A", "EPOCH": "2025-12-25T18:19:17.173344", "MEAN_MOTION": 14.8271976, "ECCENTRICITY": 0.00129661, "INCLINATION": 97.9198, "RA_OF_ASC_NODE": 289.7359, "ARG_OF_PERICENTER": 277.0684, "MEAN_ANOMALY": 82.9055, "EPHEMERIS_TYPE": 0, "CLASSIFICATION_TYPE": "U", "NORAD_CAT_ID": 33446, "ELEMENT_SET_NO": 999, "REV_AT_EPOCH": 91996, "BSTAR": 0.00018510552, "MEAN_MOTION_DOT": 1.442e-05, "MEAN_MOTION_DDOT": 0}, "tle": {"line1": "1 33446U 08061A   25359.76339321  .00001442  00000+0  18511-3 0  9992", "line2": "2 33446  97.9198 289.7359 0012966 277.0684  82.9055 14.82719760919964"}}, "geometry": {"type": "Point", "coordinates": [107.17026298873691, -22.29115577950712]}}]}